[{"OBJECT_NAME":"SKYKRAFT-1A","OBJECT_ID":"2023-001AX","EPOCH":"2026-03-09T17:03:19.828224","MEAN_MOTION":15.28083228,"ECCENTRICITY":0.00112767,"INCLINATION":97.3349,"RA_OF_ASC_NODE":127.629,"ARG_OF_PERICENTER":121.5092,"MEAN_ANOMALY":238.7251,"EPHEMERIS_TYPE":0,"CLASSIFICATION_TYPE":"U","NORAD_CAT_ID":55054,"ELEMENT_SET_NO":999,"REV_AT_EPOCH":17652,"BSTAR":0.0003006872,"MEAN_MOTION_DOT":8.177e-5,"MEAN_MOTION_DDOT":0},{"OBJECT_NAME":"STARLINK-36488","OBJECT_ID":"2026-002B","EPOCH":"2026-03-09T09:57:58.025952","MEAN_MOTION":15.27575874,"ECCENTRICITY":4.33e-5,"INCLINATION":43.0006,"RA_OF_ASC_NODE":327.1045,"ARG_OF_PERICENTER":359.2069,"MEAN_ANOMALY":0.8782,"EPHEMERIS_TYPE":0,"CLASSIFICATION_TYPE":"U","NORAD_CAT_ID":67306,"ELEMENT_SET_NO":999,"REV_AT_EPOCH":1103,"BSTAR":0.0013290569,"MEAN_MOTION_DOT":0.00036487,"MEAN_MOTION_DDOT":0}]
